[
    {
        "Altitude(m)": 553815.7437972508,
        "Argument of Periapsis(deg)": 0.013245982221427002,
        "Eccentricity": 0.0,
        "Inclination(deg)": 53.0,
        "Latitude(deg)": 19.966140621205657,
        "Longitude(deg)": 142.62417239309616,
        "Mean Anomaly(deg)": 154.7286857351552,
        "RAAN(deg)": 79.98028673705602,
        "Satellite Name": "Starlink Shell 1 360",
        "Satellite Number": 360,
        "Semi-Major Axis(m)": 6931778.249405717,
        "Time(s)": 380
    },
    {
        "Altitude(m)": 553777.6978841916,
        "Argument of Periapsis(deg)": 0.013594560700938237,
        "Eccentricity": 0.0,
        "Inclination(deg)": 53.0,
        "Latitude(deg)": 19.48108510152551,
        "Longitude(deg)": 143.00777587695313,
        "Mean Anomaly(deg)": 155.3555169387119,
        "RAAN(deg)": 79.97976796697857,
        "Satellite Name": "Starlink Shell 1 360",
        "Satellite Number": 360,
        "Semi-Major Axis(m)": 6931778.249405717,
        "Time(s)": 390
    },
    {
        "Altitude(m)": 553741.7766064608,
        "Argument of Periapsis(deg)": 0.013943139180449475,
        "Eccentricity": 0.0,
        "Inclination(deg)": 53.0,
        "Latitude(deg)": 18.99501540733812,
        "Longitude(deg)": 143.3888546671636,
        "Mean Anomaly(deg)": 155.98234814226865,
        "RAAN(deg)": 79.97924919690108,
        "Satellite Name": "Starlink Shell 1 360",
        "Satellite Number": 360,
        "Semi-Major Axis(m)": 6931778.249405717,
        "Time(s)": 400
    },
    {
        "Altitude(m)": 553708.0189219497,
        "Argument of Periapsis(deg)": 0.014291717659960712,
        "Eccentricity": 0.0,
        "Inclination(deg)": 53.0,
        "Latitude(deg)": 18.507964372511022,
        "Longitude(deg)": 143.7674863275363,
        "Mean Anomaly(deg)": 156.60917934582534,
        "RAAN(deg)": 79.9787304268236,
        "Satellite Name": "Starlink Shell 1 360",
        "Satellite Number": 360,
        "Semi-Major Axis(m)": 6931778.249405717,
        "Time(s)": 410
    },
    {
        "Altitude(m)": 553676.4628514817,
        "Argument of Periapsis(deg)": 0.014640296139471948,
        "Eccentricity": 0.0,
        "Inclination(deg)": 53.0,
        "Latitude(deg)": 18.019964273116802,
        "Longitude(deg)": 144.14374691411874,
        "Mean Anomaly(deg)": 157.23601054938197,
        "RAAN(deg)": 79.97821165674614,
        "Satellite Name": "Starlink Shell 1 360",
        "Satellite Number": 360,
        "Semi-Major Axis(m)": 6931778.249405717,
        "Time(s)": 420
    },
    {
        "Altitude(m)": 553647.1454574249,
        "Argument of Periapsis(deg)": 0.014988874618983185,
        "Eccentricity": 0.0,
        "Inclination(deg)": 53.0,
        "Latitude(deg)": 17.53104684752336,
        "Longitude(deg)": 144.51771150521444,
        "Mean Anomaly(deg)": 157.86284175293872,
        "RAAN(deg)": 79.97769288666866,
        "Satellite Name": "Starlink Shell 1 360",
        "Satellite Number": 360,
        "Semi-Major Axis(m)": 6931778.249405717,
        "Time(s)": 430
    },
    {
        "Altitude(m)": 553620.1028227446,
        "Argument of Periapsis(deg)": 0.015337453098494424,
        "Eccentricity": 0.0,
        "Inclination(deg)": 53.0,
        "Latitude(deg)": 17.041243316039235,
        "Longitude(deg)": 144.88945473169804,
        "Mean Anomaly(deg)": 158.48967295649553,
        "RAAN(deg)": 79.97717411659119,
        "Satellite Name": "Starlink Shell 1 360",
        "Satellite Number": 360,
        "Semi-Major Axis(m)": 6931778.249405717,
        "Time(s)": 440
    },
    {
        "Altitude(m)": 553595.3700305357,
        "Argument of Periapsis(deg)": 0.01568603157800566,
        "Eccentricity": 0.0,
        "Inclination(deg)": 53.0,
        "Latitude(deg)": 16.550584400125516,
        "Longitude(deg)": 145.25904979470795,
        "Mean Anomaly(deg)": 159.1165041600522,
        "RAAN(deg)": 79.97665534651372,
        "Satellite Name": "Starlink Shell 1 360",
        "Satellite Number": 360,
        "Semi-Major Axis(m)": 6931778.249405717,
        "Time(s)": 450
    },
    {
        "Altitude(m)": 553572.981143997,
        "Argument of Periapsis(deg)": 0.0160346100575169,
        "Eccentricity": 0.0,
        "Inclination(deg)": 53.0,
        "Latitude(deg)": 16.059100341182354,
        "Longitude(deg)": 145.62656899641826,
        "Mean Anomaly(deg)": 159.7433353636089,
        "RAAN(deg)": 79.97613657643625,
        "Satellite Name": "Starlink Shell 1 360",
        "Satellite Number": 360,
        "Semi-Major Axis(m)": 6931778.249405717,
        "Time(s)": 460
    },
    {
        "Altitude(m)": 553552.9691869457,
        "Argument of Periapsis(deg)": 0.016383188537028134,
        "Eccentricity": 0.0,
        "Inclination(deg)": 53.0,
        "Latitude(deg)": 15.56682091892606,
        "Longitude(deg)": 145.9920842709739,
        "Mean Anomaly(deg)": 160.37016656716563,
        "RAAN(deg)": 79.97561780635877,
        "Satellite Name": "Starlink Shell 1 360",
        "Satellite Number": 360,
        "Semi-Major Axis(m)": 6931778.249405717,
        "Time(s)": 470
    },
    {
        "Altitude(m)": 553535.3661247789,
        "Argument of Periapsis(deg)": 0.01673176701653937,
        "Eccentricity": 0.0,
        "Inclination(deg)": 53.0,
        "Latitude(deg)": 15.073775469367897,
        "Longitude(deg)": 146.35566620268153,
        "Mean Anomaly(deg)": 160.99699777072232,
        "RAAN(deg)": 79.9750990362813,
        "Satellite Name": "Starlink Shell 1 360",
        "Satellite Number": 360,
        "Semi-Major Axis(m)": 6931778.249405717,
        "Time(s)": 480
    },
    {
        "Altitude(m)": 553520.2028459527,
        "Argument of Periapsis(deg)": 0.017080345496050607,
        "Eccentricity": 0.0,
        "Inclination(deg)": 53.0,
        "Latitude(deg)": 14.579992902404374,
        "Longitude(deg)": 146.71738455716974,
        "Mean Anomaly(deg)": 161.62382897427912,
        "RAAN(deg)": 79.97458026620383,
        "Satellite Name": "Starlink Shell 1 360",
        "Satellite Number": 360,
        "Semi-Major Axis(m)": 6931778.249405717,
        "Time(s)": 490
    },
    {
        "Altitude(m)": 553507.5091440047,
        "Argument of Periapsis(deg)": 0.017428923975561842,
        "Eccentricity": 0.0,
        "Inclination(deg)": 53.0,
        "Latitude(deg)": 14.085501719033793,
        "Longitude(deg)": 147.07730881261435,
        "Mean Anomaly(deg)": 162.25066017783575,
        "RAAN(deg)": 79.97406149612635,
        "Satellite Name": "Starlink Shell 1 360",
        "Satellite Number": 360,
        "Semi-Major Axis(m)": 6931778.249405717,
        "Time(s)": 500
    },
    {
        "Altitude(m)": 553497.3137000732,
        "Argument of Periapsis(deg)": 0.01777750245507308,
        "Eccentricity": 0.0,
        "Inclination(deg)": 53.0,
        "Latitude(deg)": 13.590330028211852,
        "Longitude(deg)": 147.43550717813122,
        "Mean Anomaly(deg)": 162.8774913813925,
        "RAAN(deg)": 79.97354272604889,
        "Satellite Name": "Starlink Shell 1 360",
        "Satellite Number": 360,
        "Semi-Major Axis(m)": 6931778.249405717,
        "Time(s)": 510
    },
    {
        "Altitude(m)": 553489.6440659871,
        "Argument of Periapsis(deg)": 0.018126080934584315,
        "Eccentricity": 0.0,
        "Inclination(deg)": 53.0,
        "Latitude(deg)": 13.094505563356813,
        "Longitude(deg)": 147.79204712505862,
        "Mean Anomaly(deg)": 163.50432258494914,
        "RAAN(deg)": 79.97302395597141,
        "Satellite Name": "Starlink Shell 1 360",
        "Satellite Number": 360,
        "Semi-Major Axis(m)": 6931778.249405717,
        "Time(s)": 520
    },
    {
        "Altitude(m)": 553484.5266478459,
        "Argument of Periapsis(deg)": 0.018474659414095554,
        "Eccentricity": 0.0,
        "Inclination(deg)": 53.0,
        "Latitude(deg)": 12.598055698517204,
        "Longitude(deg)": 148.1469959182365,
        "Mean Anomaly(deg)": 164.13115378850594,
        "RAAN(deg)": 79.97250518589394,
        "Satellite Name": "Starlink Shell 1 360",
        "Satellite Number": 360,
        "Semi-Major Axis(m)": 6931778.249405717,
        "Time(s)": 530
    },
    {
        "Altitude(m)": 553481.986690243,
        "Argument of Periapsis(deg)": 0.018823237893606792,
        "Eccentricity": 0.0,
        "Inclination(deg)": 53.0,
        "Latitude(deg)": 12.101007464217822,
        "Longitude(deg)": 148.5004196343905,
        "Mean Anomaly(deg)": 164.75798499206263,
        "RAAN(deg)": 79.97198641581647,
        "Satellite Name": "Starlink Shell 1 360",
        "Satellite Number": 360,
        "Semi-Major Axis(m)": 6931778.249405717,
        "Time(s)": 540
    },
    {
        "Altitude(m)": 553482.0482609592,
        "Argument of Periapsis(deg)": 0.019171816373118027,
        "Eccentricity": 0.0,
        "Inclination(deg)": 53.0,
        "Latitude(deg)": 11.603387562991214,
        "Longitude(deg)": 148.85238369335318,
        "Mean Anomaly(deg)": 165.38481619561935,
        "RAAN(deg)": 79.971467645739,
        "Satellite Name": "Starlink Shell 1 360",
        "Satellite Number": 360,
        "Semi-Major Axis(m)": 6931778.249405717,
        "Time(s)": 550
    },
    {
        "Altitude(m)": 553484.7342363008,
        "Argument of Periapsis(deg)": 0.019520394852629266,
        "Eccentricity": 0.0,
        "Inclination(deg)": 53.0,
        "Latitude(deg)": 11.105222384611352,
        "Longitude(deg)": 149.2029533892341,
        "Mean Anomaly(deg)": 166.01164739917607,
        "RAAN(deg)": 79.97094887566152,
        "Satellite Name": "Starlink Shell 1 360",
        "Satellite Number": 360,
        "Semi-Major Axis(m)": 6931778.249405717,
        "Time(s)": 560
    }
]